{
  "type": "FeatureCollection",
  "features": [
    {
      "type": "Feature",
      "properties": {
        "norad_id": 66760,
        "name": "TRANSPORTER-15CY",
        "group": "last-30-days",
        "lat": -4.5647874826463815,
        "lon": -108.11781133642586,
        "alt_km": 514.4779318540704,
        "timestamp": "2025-12-26T22:28:04.497746+00:00",
        "meta_object_name": "TRANSPORTER-15CY",
        "meta_object_id": "2025-276CY",
        "meta_epoch": "2025-12-26T16:54:45.628128",
        "meta_mean_motion": 15.18234665,
        "meta_eccentricity": 0.0001727,
        "meta_inclination": 97.439,
        "meta_ra_of_asc_node": 72.2523,
        "meta_arg_of_pericenter": 112.3838,
        "meta_mean_anomaly": 247.7579,
        "meta_ephemeris_type": 0,
        "meta_classification_type": "U",
        "meta_norad_cat_id": 66760,
        "meta_element_set_no": 999,
        "meta_rev_at_epoch": 424,
        "meta_bstar": 0.00034387,
        "meta_mean_motion_dot": 6.973e-05,
        "meta_mean_motion_ddot": 0,
        "tle_line1": "1 66760U 25276CY  25360.70469477  .00006973  00000+0  34387-3 0  9999",
        "tle_line2": "2 66760  97.4390  72.2523 0001727 112.3838 247.7579 15.18234665  4245"
      },
      "geometry": {
        "type": "Point",
        "coordinates": [
          -108.11781133642586,
          -4.5647874826463815
        ]
      }
    },
    {
      "type": "Feature",
      "properties": {
        "norad_id": 66761,
        "name": "TRANSPORTER-15CZ",
        "group": "last-30-days",
        "lat": -22.65704658169811,
        "lon": -110.6391733417341,
        "alt_km": 515.4970806332631,
        "timestamp": "2025-12-26T22:28:04.497756+00:00",
        "meta_object_name": "TRANSPORTER-15CZ",
        "meta_object_id": "2025-276CZ",
        "meta_epoch": "2025-12-26T18:24:54.332064",
        "meta_mean_motion": 15.18561605,
        "meta_eccentricity": 0.0001736,
        "meta_inclination": 97.4389,
        "meta_ra_of_asc_node": 72.3212,
        "meta_arg_of_pericenter": 121.6895,
        "meta_mean_anomaly": 238.4509,
        "meta_ephemeris_type": 0,
        "meta_classification_type": "U",
        "meta_norad_cat_id": 66761,
        "meta_element_set_no": 999,
        "meta_rev_at_epoch": 425,
        "meta_bstar": 0.00055772,
        "meta_mean_motion_dot": 0.00011466,
        "meta_mean_motion_ddot": 0,
        "tle_line1": "1 66761U 25276CZ  25360.76729551  .00011466  00000+0  55772-3 0  9992",
        "tle_line2": "2 66761  97.4389  72.3212 0001736 121.6895 238.4509 15.18561605  4254"
      },
      "geometry": {
        "type": "Point",
        "coordinates": [
          -110.6391733417341,
          -22.65704658169811
        ]
      }
    },
    {
      "type": "Feature",
      "properties": {
        "norad_id": 66762,
        "name": "HYDROGNSS-1",
        "group": "last-30-days",
        "lat": 78.39261773864655,
        "lon": -68.04330854200532,
        "alt_km": 507.04284953359365,
        "timestamp": "2025-12-26T22:28:04.497766+00:00",
        "meta_object_name": "HYDROGNSS-1",
        "meta_object_id": "2025-276DA",
        "meta_epoch": "2025-12-26T10:57:15.799968",
        "meta_mean_motion": 15.17329748,
        "meta_eccentricity": 0.0001034,
        "meta_inclination": 97.4401,
        "meta_ra_of_asc_node": 71.976,
        "meta_arg_of_pericenter": 229.4074,
        "meta_mean_anomaly": 130.7069,
        "meta_ephemeris_type": 0,
        "meta_classification_type": "U",
        "meta_norad_cat_id": 66762,
        "meta_element_set_no": 999,
        "meta_rev_at_epoch": 420,
        "meta_bstar": 0.00026914,
        "meta_mean_motion_dot": 5.302e-05,
        "meta_mean_motion_ddot": 0,
        "tle_line1": "1 66762U 25276DA  25360.45643287  .00005302  00000+0  26914-3 0  9998",
        "tle_line2": "2 66762  97.4401  71.9760 0001034 229.4074 130.7069 15.17329748  4209"
      },
      "geometry": {
        "type": "Point",
        "coordinates": [
          -68.04330854200532,
          78.39261773864655
        ]
      }
    },
    {
      "type": "Feature",
      "properties": {
        "norad_id": 66763,
        "name": "HYDROGNSS-2",
        "group": "last-30-days",
        "lat": 66.99734603313854,
        "lon": -89.61359959189176,
        "alt_km": 507.3264682445315,
        "timestamp": "2025-12-26T22:28:04.497779+00:00",
        "meta_object_name": "HYDROGNSS-2",
        "meta_object_id": "2025-276DB",
        "meta_epoch": "2025-12-26T01:24:10.974240",
        "meta_mean_motion": 15.17451017,
        "meta_eccentricity": 0.00016493,
        "meta_inclination": 97.4407,
        "meta_ra_of_asc_node": 71.5946,
        "meta_arg_of_pericenter": 220.2496,
        "meta_mean_anomaly": 139.8616,
        "meta_ephemeris_type": 0,
        "meta_classification_type": "U",
        "meta_norad_cat_id": 66763,
        "meta_element_set_no": 999,
        "meta_rev_at_epoch": 414,
        "meta_bstar": 0.00018696789,
        "meta_mean_motion_dot": 3.675e-05,
        "meta_mean_motion_ddot": 0,
        "tle_line1": "1 66763U 25276DB  25360.05846035  .00003675  00000+0  18697-3 0  9991",
        "tle_line2": "2 66763  97.4407  71.5946 0001649 220.2496 139.8616 15.17451017  4143"
      },
      "geometry": {
        "type": "Point",
        "coordinates": [
          -89.61359959189176,
          66.99734603313854
        ]
      }
    },
    {
      "type": "Feature",
      "properties": {
        "norad_id": 66764,
        "name": "TRANSPORTER-15DC",
        "group": "last-30-days",
        "lat": 39.98397468321623,
        "lon": -101.24616203991269,
        "alt_km": 508.4124127856594,
        "timestamp": "2025-12-26T22:28:04.497791+00:00",
        "meta_object_name": "TRANSPORTER-15DC",
        "meta_object_id": "2025-276DC",
        "meta_epoch": "2025-12-26T17:06:29.382048",
        "meta_mean_motion": 15.1771923,
        "meta_eccentricity": 0.0002447,
        "meta_inclination": 97.4398,
        "meta_ra_of_asc_node": 72.2429,
        "meta_arg_of_pericenter": 181.2347,
        "meta_mean_anomaly": 178.8881,
        "meta_ephemeris_type": 0,
        "meta_classification_type": "U",
        "meta_norad_cat_id": 66764,
        "meta_element_set_no": 999,
        "meta_rev_at_epoch": 424,
        "meta_bstar": 0.00040013,
        "meta_mean_motion_dot": 8.007e-05,
        "meta_mean_motion_ddot": 0,
        "tle_line1": "1 66764U 25276DC  25360.71284007  .00008007  00000+0  40013-3 0  9991",
        "tle_line2": "2 66764  97.4398  72.2429 0002447 181.2347 178.8881 15.17719230  4247"
      },
      "geometry": {
        "type": "Point",
        "coordinates": [
          -101.24616203991269,
          39.98397468321623
        ]
      }
    },
    {
      "type": "Feature",
      "properties": {
        "norad_id": 66765,
        "name": "TRANSPORTER-15DD",
        "group": "last-30-days",
        "lat": -44.50138758596166,
        "lon": -114.87483702450777,
        "alt_km": 516.5976648793539,
        "timestamp": "2025-12-26T22:28:04.497803+00:00",
        "meta_object_name": "TRANSPORTER-15DD",
        "meta_object_id": "2025-276DD",
        "meta_epoch": "2025-12-26T16:44:14.643744",
        "meta_mean_motion": 15.18831603,
        "meta_eccentricity": 0.000196,
        "meta_inclination": 97.4413,
        "meta_ra_of_asc_node": 72.2699,
        "meta_arg_of_pericenter": 114.7419,
        "meta_mean_anomaly": 245.402,
        "meta_ephemeris_type": 0,
        "meta_classification_type": "U",
        "meta_norad_cat_id": 66765,
        "meta_element_set_no": 999,
        "meta_rev_at_epoch": 424,
        "meta_bstar": 0.00069687,
        "meta_mean_motion_dot": 0.00014462,
        "meta_mean_motion_ddot": 0,
        "tle_line1": "1 66765U 25276DD  25360.69739171  .00014462  00000+0  69687-3 0  9996",
        "tle_line2": "2 66765  97.4413  72.2699 0001960 114.7419 245.4020 15.18831603  4241"
      },
      "geometry": {
        "type": "Point",
        "coordinates": [
          -114.87483702450777,
          -44.50138758596166
        ]
      }
    },
    {
      "type": "Feature",
      "properties": {
        "norad_id": 66766,
        "name": "TRANSPORTER-15DE",
        "group": "last-30-days",
        "lat": -24.742160390906253,
        "lon": -110.97473419772207,
        "alt_km": 516.7559202958655,
        "timestamp": "2025-12-26T22:28:04.497814+00:00",
        "meta_object_name": "TRANSPORTER-15DE",
        "meta_object_id": "2025-276DE",
        "meta_epoch": "2025-12-26T15:14:32.983008",
        "meta_mean_motion": 15.18463173,
        "meta_eccentricity": 0.0001929,
        "meta_inclination": 97.4355,
        "meta_ra_of_asc_node": 72.1797,
        "meta_arg_of_pericenter": 87.5181,
        "meta_mean_anomaly": 272.6274,
        "meta_ephemeris_type": 0,
        "meta_classification_type": "U",
        "meta_norad_cat_id": 66766,
        "meta_element_set_no": 999,
        "meta_rev_at_epoch": 423,
        "meta_bstar": 0.00055338,
        "meta_mean_motion_dot": 0.00011344,
        "meta_mean_motion_ddot": 0,
        "tle_line1": "1 66766U 25276DE  25360.63510397  .00011344  00000+0  55338-3 0  9992",
        "tle_line2": "2 66766  97.4355  72.1797 0001929  87.5181 272.6274 15.18463173  4238"
      },
      "geometry": {
        "type": "Point",
        "coordinates": [
          -110.97473419772207,
          -24.742160390906253
        ]
      }
    }
  ]
}